{"type":"FeatureCollection","features":[{"type":"Feature","geometry":{"type":"Polygon","coordinates":[[[-76.9159,36.55215],[-75.7975,36.55092],[-75.81982,36.62515],[-75.87465,36.74431],[-75.92831,36.93818],[-75.88968,37.05451],[-75.82415,37.11012],[-75.80591,37.11606],[-75.76605,37.15493],[-75.72927,37.2169],[-75.73228,37.24569],[-75.71552,37.27569],[-75.67896,37.31258],[-75.65659,37.32391],[-75.64439,37.34227],[-75.64346,37.37286],[-75.60403,37.42202],[-75.58911,37.47786],[-75.5299,37.55672],[-75.52844,37.58488],[-75.54178,37.60615],[-75.51846,37.64943],[-75.50775,37.68865],[-75.46093,37.77136],[-75.41707,37.82105],[-75.36012,37.81019],[-75.33798,37.81523],[-75.30313,37.83817],[-75.16643,38.02783],[-75.62445,37.99419],[-75.63383,37.98452],[-75.62953,37.97596],[-75.63822,37.97939],[-75.64823,37.96677],[-75.6477,37.94696],[-75.70463,37.9547],[-75.76164,37.94137],[-75.80124,37.91217],[-75.95267,37.90683],[-75.94369,37.94613],[-76.05202,37.95358],[-76.23646,37.8866],[-76.26181,37.90879],[-76.33337,37.94296],[-76.41293,37.96633],[-76.46501,38.01322],[-76.51661,38.02678],[-76.51616,38.04492],[-76.53646,38.0749],[-76.59616,38.10668],[-76.60543,38.14893],[-76.76397,38.16779],[-76.83937,38.16361],[-76.87674,38.17302],[-76.91113,38.19736],[-76.94902,38.20842],[-76.96225,38.22989],[-76.95692,38.23747],[-76.96209,38.25696],[-77.02813,38.30532],[-77.03068,38.31162],[-77.01453,38.33263],[-77.01146,38.37442],[-77.0415,38.40069],[-77.05342,38.39881],[-77.08424,38.36874],[-77.13822,38.36792],[-77.16322,38.34582],[-77.24007,38.3316],[-77.27658,38.33788],[-77.30494,38.37527],[-77.32291,38.43262],[-77.31056,38.49399],[-77.28531,38.51969],[-77.27403,38.55015],[-77.25645,38.56059],[-77.24636,38.59344],[-77.2037,38.61817],[-77.12968,38.6347],[-77.13642,38.65023],[-77.13244,38.67414],[-77.12263,38.68526],[-77.07923,38.71305],[-77.05352,38.7098],[-77.04388,38.71767],[-77.0377,38.8295],[-77.04802,38.84126],[-77.03464,38.84004],[-77.03214,38.85029],[-77.04167,38.87253],[-77.05055,38.87198],[-77.06869,38.90032],[-77.103,38.91271],[-77.1472,38.96444],[-77.20069,38.96726],[-77.24503,38.98268],[-77.25576,39.00188],[-77.24538,39.01753],[-77.24842,39.02655],[-77.33714,39.06226],[-77.45697,39.0734],[-77.4854,39.10931],[-77.52009,39.12087],[-77.52768,39.14466],[-77.51762,39.16942],[-77.50753,39.1814],[-77.47867,39.18967],[-77.47416,39.20776],[-77.45771,39.22498],[-77.48665,39.24728],[-77.54309,39.26692],[-77.56069,39.28596],[-77.5666,39.30605],[-77.61591,39.30255],[-77.67681,39.32456],[-77.7307,39.3156],[-77.7701,39.25637],[-77.77137,39.23649],[-77.79266,39.21139],[-77.8283,39.13243],[-78.34709,39.46601],[-78.34655,39.44262],[-78.35323,39.43679],[-78.34672,39.42762],[-78.35992,39.40903],[-78.34321,39.38881],[-78.36687,39.35929],[-78.33928,39.3486],[-78.41942,39.25748],[-78.39967,39.24387],[-78.4387,39.19809],[-78.4249,39.1933],[-78.42632,39.18276],[-78.4037,39.16745],[-78.42729,39.15273],[-78.45987,39.11335],[-78.49516,39.10099],[-78.5719,39.032],[-78.55047,39.01807],[-78.60165,38.9646],[-78.6278,38.98179],[-78.69744,38.91436],[-78.71929,38.90523],[-78.71708,38.93603],[-78.73915,38.92713],[-78.75908,38.90053],[-78.78602,38.88719],[-78.86926,38.76298],[-78.99376,38.85002],[-78.99975,38.84616],[-79.02725,38.79211],[-79.05495,38.78571],[-79.05725,38.76071],[-79.08546,38.72461],[-79.09295,38.70171],[-79.08446,38.68512],[-79.09275,38.65982],[-79.12976,38.65502],[-79.17095,38.56812],[-79.20586,38.52452],[-79.21059,38.49291],[-79.23988,38.47008],[-79.24267,38.45418],[-79.25448,38.45593],[-79.26732,38.43827],[-79.28275,38.43169],[-79.28294,38.4181],[-79.31228,38.41188],[-79.47664,38.45723],[-79.53687,38.55092],[-79.64917,38.59141],[-79.66977,38.55032],[-79.67297,38.52872],[-79.66217,38.51522],[-79.67049,38.50766],[-79.68037,38.51062],[-79.69757,38.48722],[-79.68967,38.43146],[-79.72951,38.38119],[-79.7256,38.36383],[-79.74218,38.35325],[-79.76443,38.35651],[-79.77309,38.33553],[-79.81015,38.30671],[-79.79166,38.28465],[-79.78894,38.2687],[-79.84521,38.24107],[-79.89733,38.19338],[-79.92008,38.18253],[-79.91866,38.15479],[-79.93275,38.13616],[-79.94526,38.13224],[-79.93895,38.11163],[-79.9264,38.10654],[-79.95437,38.0804],[-79.9716,38.03523],[-79.99938,37.99491],[-80.10293,37.91891],[-80.11775,37.89772],[-80.1622,37.87512],[-80.18275,37.85136],[-80.17939,37.83975],[-80.19297,37.83475],[-80.22769,37.79789],[-80.21661,37.77596],[-80.23046,37.7783],[-80.25741,37.75608],[-80.26277,37.73834],[-80.25308,37.7259],[-80.29592,37.69284],[-80.2675,37.64616],[-80.22098,37.62777],[-80.25892,37.5955],[-80.3285,37.56432],[-80.3122,37.54622],[-80.33037,37.53627],[-80.30935,37.52738],[-80.28239,37.53352],[-80.30933,37.50288],[-80.36684,37.48488],[-80.36317,37.48],[-80.37195,37.47407],[-80.47547,37.42295],[-80.49486,37.43507],[-80.49298,37.45775],[-80.51139,37.48167],[-80.55204,37.47356],[-80.7163,37.38869],[-80.77008,37.37236],[-80.78419,37.39459],[-80.80574,37.39795],[-80.83723,37.42541],[-80.85946,37.42949],[-80.863,37.41151],[-80.88325,37.38393],[-80.84945,37.34691],[-80.89916,37.31568],[-80.96656,37.29216],[-80.98132,37.29347],[-80.97959,37.30228],[-81.10415,37.2806],[-81.16703,37.26288],[-81.2251,37.23487],[-81.36528,37.33784],[-81.37275,37.32025],[-81.39429,37.31641],[-81.41603,37.27363],[-81.44765,37.27224],[-81.48014,37.25112],[-81.4991,37.25795],[-81.50764,37.23371],[-81.54557,37.22016],[-81.55471,37.20799],[-81.67822,37.20154],[-81.72306,37.24049],[-81.74012,37.23775],[-81.7409,37.25432],[-81.75714,37.27615],[-81.77324,37.27391],[-81.80068,37.28568],[-81.82575,37.27909],[-81.84995,37.28523],[-81.85446,37.30657],[-81.86568,37.30948],[-81.86049,37.31594],[-81.87935,37.33249],[-81.89388,37.33002],[-81.92846,37.36046],[-81.93674,37.38073],[-81.92296,37.41139],[-81.93891,37.422],[-81.93562,37.4384],[-81.97038,37.44769],[-81.97618,37.45719],[-81.98701,37.45488],[-81.99607,37.47153],[-81.9909,37.48443],[-81.95384,37.4915],[-81.95315,37.50131],[-81.92624,37.51357],[-81.93374,37.51949],[-81.94426,37.51328],[-81.94396,37.53128],[-81.95597,37.52839],[-81.96801,37.53803],[-82.32473,37.28304],[-82.34384,37.28074],[-82.349,37.26797],[-82.49876,37.22703],[-82.59226,37.18304],[-82.63338,37.15442],[-82.72141,37.12083],[-82.72502,37.09182],[-82.71665,37.07741],[-82.72674,37.07304],[-82.72243,37.04495],[-82.74276,37.0428],[-82.74786,37.02442],[-82.75948,37.02726],[-82.78286,37.00782],[-82.82872,37.0058],[-82.83727,36.98728],[-82.86747,36.97805],[-82.87011,36.96498],[-82.85573,36.95382],[-82.8623,36.94134],[-82.85766,36.92867],[-82.87738,36.90847],[-82.86798,36.90005],[-82.87868,36.88953],[-82.90782,36.87476],[-82.99859,36.85657],[-83.00658,36.84764],[-83.02661,36.85556],[-83.07284,36.85446],[-83.07517,36.84073],[-83.10194,36.82824],[-83.10433,36.804],[-83.13323,36.78458],[-83.13254,36.76439],[-83.12557,36.76162],[-83.13512,36.74263],[-83.19484,36.73945],[-83.30971,36.71064],[-83.42471,36.66734],[-83.53015,36.66605],[-83.57761,36.64139],[-83.64512,36.62431],[-83.67539,36.60078],[-83.24893,36.59383],[-81.93414,36.59421],[-81.92264,36.61621],[-81.6469,36.61192],[-81.67749,36.58814],[-80.12217,36.54265],[-76.91651,36.54388],[-76.9159,36.55215]]]},"properties":{"STATE":"51","BASENAME":"Virginia"}}]}